KAZSTSAT                
1 43783U 18099AB  24273.87154206  .00004222  00000+0  37021-3 0  9998
2 43783  97.5152 320.9243 0006885   2.6897 357.4361 14.97140365317648
SAUDISAT 5A             
1 43831U 18102A   24274.20219886  .00014176  00000+0  70039-3 0  9996
2 43831  97.3974 337.3784 0012500 167.0712 193.0844 15.17896606320516
SAUDISAT 5B             
1 43833U 18102C   24274.19690418  .00013990  00000+0  67942-3 0  9992
2 43833  97.4031 339.3626 0013131 170.9186 189.2288 15.18492719320606
GAOFEN-10R              
1 44622U 19066A   24274.15648292  .00005923  00000+0  75505-3 0  9999
2 44622  97.9714 215.5975 0002957 357.7798   2.3401 14.81877655269762
CARTOSAT-3              
1 44804U 19081A   24274.16672182  .00013906  00000+0  65840-3 0  9995
2 44804  97.5214 331.5824 0013605 174.1588 185.9808 15.19375810268527
GAOFEN-12 01            
1 44819U 19082A   24274.19059349  .00001795  00000+0  24006-3 0  9991
2 44819  97.8239 285.7586 0003199  72.3711 287.7850 14.80701062261612
CSG-1                   
1 44873U 19092A   24274.17386016  .00002322  00000+0  29824-3 0  9994
2 44873  97.8891  95.8034 0001477  89.8709 270.2673 14.82145873258891
NEMO-HD                 
1 46277U 20061F   24274.14977147  .00015593  00000+0  55845-3 0  9996
2 46277  97.2861 334.5169 0003048 114.7837 245.3721 15.28835874225967
SENTINEL-6              
1 46984U 20086A   24273.93147104 -.00000044  00000+0  73438-4 0  9991
2 46984  66.0450 353.7172 0007825 269.2028  90.8090 12.80928426180246
GAOFEN-12 02            
1 48079U 21026A   24274.24918117  .00001999  00000+0  26738-3 0  9997
2 48079  97.9594 265.0732 0003427 148.6629 211.4788 14.80595979189297
PLEIADES NEO 3          
1 48268U 21034A   24274.17262568  .00003983  00000+0  51241-3 0  9992
2 48268  97.8960 346.9086 0000910 111.5086 248.6223 14.81675038185102
NUSAT-19 (ROSALIND)     
1 48905U 21059AC  24274.19627125  .00416939  00000+0  18704-2 0  9998
2 48905  97.5908  74.3933 0005315 285.0143  75.0537 15.83062219182254
PLEIADES NEO 4          
1 49070U 21073E   24274.13884702  .00002116  00000+0  27542-3 0  9997
2 49070  97.8974 346.8691 0001025 104.8657 255.2670 14.81682359168810
LANDSAT 9               
1 49260U 21088A   24274.16686053  .00001552  00000+0  35460-3 0  9997
2 49260  98.2225 342.4558 0001403  92.4294 267.7065 14.57096719159973
CSG-2                   
1 51444U 22008A   24274.14009603  .00001648  00000+0  21347-3 0  9990
2 51444  97.8892  95.7626 0001362  88.8039 271.3330 14.82176290144004
INS-2TD                 
1 51658U 22013C   24274.16883584  .00274730  00000+0  23267-2 0  9999
2 51658  97.5033 302.5565 0006742 129.7100 230.4756 15.68838158146303
GAOFEN-12 03            
1 52912U 22069A   24274.15821135  .00006165  00000+0  80580-3 0  9994
2 52912  97.8954 163.6746 0008854 174.0141 186.1179 14.80781221122146
SWOT                    
1 54754U 22173A   24273.90659204  .00000133  00000+0  92188-4 0  9991
2 54754  77.6111 159.3784 0000444  59.6166 300.5029 14.00169366 91647
GAOFEN-12 04            
1 57654U 23123A   24274.19041622  .00006083  00000+0  79609-3 0  9992
2 57654  97.9050 190.1760 0002469  97.4428 262.7065 14.80756439 60166
PARS 1                  
1 59065U 24039Q   24274.20938298  .00019107  00000+0  68605-3 0  9998
2 59065  97.4052 235.3034 0012989 186.1529 173.9554 15.28636590 32605
RESURS-P 4              
1 59371U 24061A   24274.17871808  .00012460  00000+0  37421-3 0  9999
2 59371  97.1960 224.4327 0003066  97.3921 262.7671 15.34559304 28010
LEGION 1                
1 59625U 24081A   24273.91298436  .00013496  00000+0  68884-3 0  9991
2 59625  97.5673 344.8625 0008567  13.1846 346.9609 15.16810595 22751
LEGION 2                
1 59626U 24081B   24273.94446816  .00014664  00000+0  74928-3 0  9996
2 59626  97.5675 344.9734 0004189  59.2630 300.9015 15.16775191 22768
ALOS-4 (DAICHI-4)       
1 60182U 24123A   24274.23099422  .00005580  00000+0  75353-3 0  9992
2 60182  97.9218   9.3771 0001463  98.1663 261.9714 14.79468992 13473
LEGION 3                
1 60452U 24146A   24273.90186462  .00037469  00000+0  95763-3 0  9999
2 60452  44.9989 156.0823 0016744 214.2380 145.7429 15.38745575  6984
LEGION 4                
1 60453U 24146B   24273.90823952  .00001400  00000+0  33830-3 0  9995
2 60453  45.0384 183.3069 0004132   7.3931 352.6985 14.57580579  6619
SENTINEL-2C             
1 60989U 24157A   24273.77043699  .00000599  00000+0  22836-3 0  9990
2 60989  98.5685 346.5232 0001923 190.5194 169.5951 14.34436581  3541
SARSAT 7 (NOAA 15)      
1 25338U 98030A   24274.15679541  .00000626  00000+0  27638-3 0  9990
2 25338  98.5630 299.0707 0010632  24.3957 335.7724 14.26724672372408
GPS BIIR-08             
1 27663U 03005A   24273.90102766 -.00000025  00000+0  00000+0 0  9997
2 27663  55.0668 239.8281 0138322  47.7793 322.6151  2.00568888158778
GPS BIIR-11             
1 28190U 04009A   24273.91251750 -.00000031  00000+0  00000+0 0  9994
2 28190  55.3643 300.8522 0098897 153.3647  19.0574  2.00556212150407
GPS BIIR-13             
1 28474U 04045A   24273.83215704 -.00000106  00000+0  00000+0 0  9992
2 28474  55.4044 350.0231 0164198 295.0717 226.0427  2.00562442145887
SARSAT 10 (NOAA 18)     
1 28654U 05018A   24274.19966902  .00000639  00000+0  36356-3 0  9993
2 28654  98.8675 350.2641 0015186 124.1828 236.0786 14.13345301998090
GPS BIIR-14M            
1 28874U 05038A   24274.22371469 -.00000029  00000+0  00000+0 0  9998
2 28874  55.4096 298.3045 0137380 285.7209 134.4203  2.00578377139296
METEOSAT-9 (MSG-2)      
1 28912U 05049B   24273.54283925  .00000121  00000+0  00000+0 0  9998
2 28912   7.9244  59.9555 0001972 194.7751 355.1926  1.00275427 68802
GOES 13                 
1 29155U 06018A   24273.84258347 -.00000154  00000+0  00000+0 0  9995
2 29155   2.8954  83.9910 0064465 256.0390  86.2207  0.98865671 67190
GPS BIIR-16M            
1 29601U 06052A   24273.19961046 -.00000023  00000+0  00000+0 0  9999
2 29601  55.1006 238.8410 0084832  83.6486 277.2895  2.00573415130857
GPS BIIR-17M            
1 32260U 07047A   24273.50582395  .00000040  00000+0  00000+0 0  9998
2 32260  53.6637 105.9269 0159086  77.7389 284.1166  2.00559204124267
GPS BIIR-18M            
1 32384U 07062A   24273.54718168 -.00000027  00000+0  00000+0 0  9991
2 32384  55.5518 299.2094 0028171 157.6162   1.6771  2.00553160122967
SARSAT 12 (NOAA 19)     
1 33591U 09005A   24274.16612198  .00000569  00000+0  32880-3 0  9991
2 33591  99.0361 331.0250 0013633   0.6471 359.4716 14.13133137806454
GOES 14                 
1 35491U 09033A   24273.58375991 -.00000077  00000+0  00000+0 0  9995
2 35491   0.0566 101.6285 0003847  74.2123 294.6758  1.00270958   323
GOES 15                 
1 36411U 10008A   24273.90348661  .00000028  00000+0  00000+0 0  9997
2 36411   0.3326 274.6057 0006297 309.8308 171.2555  1.00271836 53379
GSAT0101 (GALILEO-PFM)  
1 37846U 11060A   24272.96217454 -.00000111  00000+0  00000+0 0  9993
2 37846  57.1251 358.7303 0000639 300.3116  59.7149  1.70475896 80440
GSAT0102 (GALILEO-FM2)  
1 37847U 11060B   24270.50971667 -.00000114  00000+0  00000+0 0  9998
2 37847  57.1258 358.7967 0002019 302.5392  37.8638  1.70475265 80404
LUCH 5A                 
1 37951U 11074B   24273.78150656 -.00000052  00000+0  00000+0 0  9990
2 37951   7.1506  83.3001 0004477 105.7023 268.3183  1.00271260 46786
METEOSAT-10 (MSG-3)     
1 38552U 12035B   24274.10591785 -.00000010  00000+0  00000+0 0  9999
2 38552   3.2016  61.5291 0001062 223.1096 123.0716  1.00276473 44955
SARSAT 13 (METOP-B)     
1 38771U 12049A   24274.12347890  .00000465  00000+0  23222-3 0  9993
2 38771  98.6169 328.9343 0001398 107.6903 252.4427 14.21522445624453
GPS BIIF-3              
1 38833U 12053A   24273.60352949 -.00000017  00000+0  00000+0 0  9999
2 38833  53.5177 169.2039 0158117  57.6089 303.9657  2.00560265 87782
GSAT0103 (GALILEO-FM3)  
1 38857U 12055A   24273.00169249  .00000038  00000+0  00000+0 0  9992
2 38857  55.4550 118.7506 0002029 267.9998  92.0736  1.70473742 74337
GPS BIIF-4              
1 39166U 13023A   24273.46567691 -.00000022  00000+0  00000+0 0  9999
2 39166  55.0235 294.3736 0124653  44.9544 316.0980  2.00562571 83334
INSAT-3D                
1 39216U 13038B   24273.98854250 -.00000348  00000+0  00000+0 0  9999
2 39216   0.3018  91.8657 0001643 117.0719 285.6564  1.00270924 41030
GPS BIIF-5              
1 39533U 14008A   24273.46099931 -.00000026  00000+0  00000+0 0  9992
2 39533  53.5993 174.8224 0073152 221.0698 138.4205  2.00574515 77133
LUCH 5V                 
1 39727U 14023A   24273.92341186 -.00000276  00000+0  00000+0 0  9994
2 39727   3.5579  75.2269 0003737 154.7079 206.4391  1.00272606 38092
GPS BIIF-6              
1 39741U 14026A   24273.24483323 -.00000112  00000+0  00000+0 0  9997
2 39741  56.6997 355.8381 0032457 313.1208  46.6474  2.00560958 75985
GPS BIIF-7              
1 40105U 14045A   24273.83294459  .00000048  00000+0  00000+0 0  9996
2 40105  54.9779 113.4255 0029330 115.7168 244.6719  2.00573498 73539
GSAT0201 (GALILEO 5)    
1 40128U 14050A   24271.49575037 -.00000039  00000+0  00000+0 0  9992
2 40128  49.5541 298.9454 1613725 155.2584 213.4453  1.85519582 66672
GSAT0202 (GALILEO 6)    
1 40129U 14050B   24272.83164122 -.00000042  00000+0  00000+0 0  9995
2 40129  49.5693 297.9698 1612897 156.1046 212.3209  1.85520315 68868
GPS BIIF-8              
1 40294U 14068A   24273.70964432 -.00000044  00000+0  00000+0 0  9998
2 40294  56.5119  55.1682 0055050  65.5947 294.9799  2.00566616 72668
GLONASS-K 2             
1 40315U 14075A   24273.30869017 -.00000034  00000+0  00000+0 0  9998
2 40315  63.6203 212.0579 0020301 209.5729 150.2963  2.13101439 76510
GPS BIIF-9              
1 40534U 15013A   24273.83962540 -.00000035  00000+0  00000+0 0  9998
2 40534  53.3120 230.0610 0091683  30.7884 329.7118  2.00559358 69284
